[{"OBJECT_NAME":"STARLINK-35694","OBJECT_ID":"2025-257K","EPOCH":"2026-03-09T16:04:04.417248","MEAN_MOTION":15.30200096,"ECCENTRICITY":0.00012687,"INCLINATION":53.1607,"RA_OF_ASC_NODE":216.8869,"ARG_OF_PERICENTER":78.5683,"MEAN_ANOMALY":281.546,"EPHEMERIS_TYPE":0,"CLASSIFICATION_TYPE":"U","NORAD_CAT_ID":66389,"ELEMENT_SET_NO":999,"REV_AT_EPOCH":1973,"BSTAR":0.00083579024,"MEAN_MOTION_DOT":0.00024476,"MEAN_MOTION_DDOT":0},{"OBJECT_NAME":"CZ-6A DEB","OBJECT_ID":"2022-151QB","EPOCH":"2026-03-08T18:03:47.471328","MEAN_MOTION":15.32168285,"ECCENTRICITY":0.00205863,"INCLINATION":98.6246,"RA_OF_ASC_NODE":151.4486,"ARG_OF_PERICENTER":181.9757,"MEAN_ANOMALY":178.1404,"EPHEMERIS_TYPE":0,"CLASSIFICATION_TYPE":"U","NORAD_CAT_ID":54890,"ELEMENT_SET_NO":999,"REV_AT_EPOCH":17659,"BSTAR":0.012866954,"MEAN_MOTION_DOT":0.00424465,"MEAN_MOTION_DDOT":0}]
